NUSAT-49 (KLARA DAN VO*)
1 60500U 24149AJ  26068.79810190  .00012912  00000+0  43568-3 0  9991
2 60500  97.3807 150.7380 0001132 286.7761  73.3356 15.30828857 86935
STARLINK-35973          
1 66632U 25271R   26068.47336867  .00024246  00000+0  82798-3 0  9990
2 66632  53.1577 140.9367 0000932  72.1712 287.9391 15.30203912 17493
